{"type": "FeatureCollection", "features": [ {"type": "Feature", "properties": {"norad_id": 54234, "name": "NOAA 21 (JPSS-2)", "group": "weather", "lat": -30.93540542183004, "lon": -73.88825020353492, "alt_km": 832.4310017769667, "timestamp": "2025-12-10T11:33:53.034403+00:00", "meta": {"OBJECT_NAME": "NOAA 21 (JPSS-2)", "OBJECT_ID": "2022-150A", "EPOCH": "2025-12-09T22:10:43.470336", "MEAN_MOTION": 14.19522973, "ECCENTRICITY": 0.0002324, "INCLINATION": 98.7458, "RA_OF_ASC_NODE": 280.2675, "ARG_OF_PERICENTER": 43.4458, "MEAN_ANOMALY": 316.69, "EPHEMERIS_TYPE": 0, "CLASSIFICATION_TYPE": "U", "NORAD_CAT_ID": 54234, "ELEMENT_SET_NO": 999, "REV_AT_EPOCH": 15969, "BSTAR": 0.00010627, "MEAN_MOTION_DOT": 1.8e-06, "MEAN_MOTION_DDOT": 0}, "tle": {"line1": "1 54234U 22150A   25343.92411424  .00000180  00000+0  10627-3 0  9999", "line2": "2 54234  98.7458 280.2675 0002324  43.4458 316.6900 14.19522973159698"}}, "geometry": {"type": "Point", "coordinates": [-73.88825020353492, -30.93540542183004]}}, {"type": "Feature", "properties": {"norad_id": 54743, "name": "METEOSAT-12 (MTG-I1)", "group": "weather", "lat": -0.5014535606354509, "lon": -107.28235898146836, "alt_km": 35779.16452845574, "timestamp": "2025-12-10T11:33:53.034414+00:00", "meta": {"OBJECT_NAME": "METEOSAT-12 (MTG-I1)", "OBJECT_ID": "2022-170C", "EPOCH": "2025-12-09T23:46:38.709120", "MEAN_MOTION": 1.00275392, "ECCENTRICITY": 0.0001408, "INCLINATION": 0.7277, "RA_OF_ASC_NODE": 31.2079, "ARG_OF_PERICENTER": 224.6279, "MEAN_ANOMALY": 179.5873, "EPHEMERIS_TYPE": 0, "CLASSIFICATION_TYPE": "U", "NORAD_CAT_ID": 54743, "ELEMENT_SET_NO": 999, "REV_AT_EPOCH": 1108, "BSTAR": 0, "MEAN_MOTION_DOT": -3e-08, "MEAN_MOTION_DDOT": 0}, "tle": {"line1": "1 54743U 22170C   25343.99072580 -.00000003  00000+0  00000+0 0  9994", "line2": "2 54743   0.7277  31.2079 0001408 224.6279 179.5873  1.00275392 11084"}}, "geometry": {"type": "Point", "coordinates": [-107.28235898146836, -0.5014535606354509]}}, {"type": "Feature", "properties": {"norad_id": 55973, "name": "TIANMU-1 03", "group": "weather", "lat": -10.29771370455044, "lon": 148.4442395089833, "alt_km": 447.38855172080184, "timestamp": "2025-12-10T11:33:53.034425+00:00", "meta": {"OBJECT_NAME": "TIANMU-1 03", "OBJECT_ID": "2023-039A", "EPOCH": "2025-12-10T03:48:59.465376", "MEAN_MOTION": 15.40801494, "ECCENTRICITY": 0.0004491, "INCLINATION": 97.5113, "RA_OF_ASC_NODE": 146.7388, "ARG_OF_PERICENTER": 68.445, "MEAN_ANOMALY": 291.7274, "EPHEMERIS_TYPE": 0, "CLASSIFICATION_TYPE": "U", "NORAD_CAT_ID": 55973, "ELEMENT_SET_NO": 999, "REV_AT_EPOCH": 15166, "BSTAR": 0.00052442, "MEAN_MOTION_DOT": 0.00021435, "MEAN_MOTION_DDOT": 0}, "tle": {"line1": "1 55973U 23039A   25344.15902159  .00021435  00000+0  52442-3 0  9990", "line2": "2 55973  97.5113 146.7388 0004491  68.4450 291.7274 15.40801494151666"}}, "geometry": {"type": "Point", "coordinates": [148.4442395089833, -10.29771370455044]}}, {"type": "Feature", "properties": {"norad_id": 55974, "name": "TIANMU-1 04", "group": "weather", "lat": 76.63679408285569, "lon": -0.03272066177081757, "alt_km": 432.71406455592296, "timestamp": "2025-12-10T11:33:53.034435+00:00", "meta": {"OBJECT_NAME": "TIANMU-1 04", "OBJECT_ID": "2023-039B", "EPOCH": "2025-12-10T04:53:42.041184", "MEAN_MOTION": 15.41138467, "ECCENTRICITY": 0.0005182, "INCLINATION": 97.5043, "RA_OF_ASC_NODE": 145.9771, "ARG_OF_PERICENTER": 64.013, "MEAN_ANOMALY": 296.165, "EPHEMERIS_TYPE": 0, "CLASSIFICATION_TYPE": "U", "NORAD_CAT_ID": 55974, "ELEMENT_SET_NO": 999, "REV_AT_EPOCH": 15167, "BSTAR": 0.0005271, "MEAN_MOTION_DOT": 0.0002179, "MEAN_MOTION_DDOT": 0}, "tle": {"line1": "1 55974U 23039B   25344.20395881  .00021790  00000+0  52710-3 0  9997", "line2": "2 55974  97.5043 145.9771 0005182  64.0130 296.1650 15.41138467151673"}}, "geometry": {"type": "Point", "coordinates": [-0.03272066177081757, 76.63679408285569]}}, {"type": "Feature", "properties": {"norad_id": 55975, "name": "TIANMU-1 05", "group": "weather", "lat": 43.4118420952321, "lon": -26.07662994685777, "alt_km": 438.4411485920782, "timestamp": "2025-12-10T11:33:53.034446+00:00", "meta": {"OBJECT_NAME": "TIANMU-1 05", "OBJECT_ID": "2023-039C", "EPOCH": "2025-12-10T04:44:31.096896", "MEAN_MOTION": 15.4076134, "ECCENTRICITY": 0.0004374, "INCLINATION": 97.509, "RA_OF_ASC_NODE": 146.4628, "ARG_OF_PERICENTER": 85.0223, "MEAN_ANOMALY": 275.1522, "EPHEMERIS_TYPE": 0, "CLASSIFICATION_TYPE": "U", "NORAD_CAT_ID": 55975, "ELEMENT_SET_NO": 999, "REV_AT_EPOCH": 15165, "BSTAR": 0.00051514, "MEAN_MOTION_DOT": 0.00021025, "MEAN_MOTION_DDOT": 0}, "tle": {"line1": "1 55975U 23039C   25344.19758214  .00021025  00000+0  51514-3 0  9991", "line2": "2 55975  97.5090 146.4628 0004374  85.0223 275.1522 15.40761340151655"}}, "geometry": {"type": "Point", "coordinates": [-26.07662994685777, 43.4118420952321]}}, {"type": "Feature", "properties": {"norad_id": 55976, "name": "TIANMU-1 06", "group": "weather", "lat": 82.34711436682566, "lon": 68.15934682153382, "alt_km": 431.90187464255814, "timestamp": "2025-12-10T11:33:53.034457+00:00", "meta": {"OBJECT_NAME": "TIANMU-1 06", "OBJECT_ID": "2023-039D", "EPOCH": "2025-12-10T03:23:27.650400", "MEAN_MOTION": 15.41188264, "ECCENTRICITY": 0.000473, "INCLINATION": 97.5101, "RA_OF_ASC_NODE": 146.8679, "ARG_OF_PERICENTER": 81.085, "MEAN_ANOMALY": 279.0931, "EPHEMERIS_TYPE": 0, "CLASSIFICATION_TYPE": "U", "NORAD_CAT_ID": 55976, "ELEMENT_SET_NO": 999, "REV_AT_EPOCH": 15166, "BSTAR": 0.00052481, "MEAN_MOTION_DOT": 0.00021729, "MEAN_MOTION_DDOT": 0}, "tle": {"line1": "1 55976U 23039D   25344.14129225  .00021729  00000+0  52481-3 0  9996", "line2": "2 55976  97.5101 146.8679 0004730  81.0850 279.0931 15.41188264151664"}}, "geometry": {"type": "Point", "coordinates": [68.15934682153382, 82.34711436682566]}}, {"type": "Feature", "properties": {"norad_id": 56232, "name": "FENGYUN 3G", "group": "weather", "lat": 35.815921868943555, "lon": -83.58714402658022, "alt_km": 401.5420949663303, "timestamp": "2025-12-10T11:33:53.034468+00:00", "meta": {"OBJECT_NAME": "FENGYUN 3G", "OBJECT_ID": "2023-055A", "EPOCH": "2025-12-10T03:37:55.254144", "MEAN_MOTION": 15.53399259, "ECCENTRICITY": 0.0009295, "INCLINATION": 49.9932, "RA_OF_ASC_NODE": 240.8099, "ARG_OF_PERICENTER": 136.1323, "MEAN_ANOMALY": 224.0384, "EPHEMERIS_TYPE": 0, "CLASSIFICATION_TYPE": "U", "NORAD_CAT_ID": 56232, "ELEMENT_SET_NO": 999, "REV_AT_EPOCH": 15062, "BSTAR": 0.00065278, "MEAN_MOTION_DOT": 0.0004196, "MEAN_MOTION_DDOT": 0}, "tle": {"line1": "1 56232U 23055A   25344.15133396  .00041960  00000+0  65278-3 0  9992", "line2": "2 56232  49.9932 240.8099 0009295 136.1323 224.0384 15.53399259150620"}}, "geometry": {"type": "Point", "coordinates": [-83.58714402658022, 35.815921868943555]}}, {"type": "Feature", "properties": {"norad_id": 57166, "name": "METEOR-M2 3", "group": "weather", "lat": -18.728169606953966, "lon": -144.893628609604, "alt_km": 819.6895893127867, "timestamp": "2025-12-10T11:33:53.034477+00:00", "meta": {"OBJECT_NAME": "METEOR-M2 3", "OBJECT_ID": "2023-091A", "EPOCH": "2025-12-10T03:53:19.183776", "MEAN_MOTION": 14.24025665, "ECCENTRICITY": 0.0004055, "INCLINATION": 98.6381, "RA_OF_ASC_NODE": 37.7463, "ARG_OF_PERICENTER": 16.0228, "MEAN_ANOMALY": 344.1078, "EPHEMERIS_TYPE": 0, "CLASSIFICATION_TYPE": "U", "NORAD_CAT_ID": 57166, "ELEMENT_SET_NO": 999, "REV_AT_EPOCH": 12761, "BSTAR": 4.0525e-05, "MEAN_MOTION_DOT": 5e-07, "MEAN_MOTION_DDOT": 0}, "tle": {"line1": "1 57166U 23091A   25344.16202759  .00000050  00000+0  40525-4 0  9994", "line2": "2 57166  98.6381  37.7463 0004055  16.0228 344.1078 14.24025665127614"}}, "geometry": {"type": "Point", "coordinates": [-144.893628609604, -18.728169606953966]}}, {"type": "Feature", "properties": {"norad_id": 57399, "name": "TIANMU-1 07", "group": "weather", "lat": -79.0683594906886, "lon": 172.88335594225998, "alt_km": 492.9573763222061, "timestamp": "2025-12-10T11:33:53.034488+00:00", "meta": {"OBJECT_NAME": "TIANMU-1 07", "OBJECT_ID": "2023-101A", "EPOCH": "2025-12-10T04:08:08.986272", "MEAN_MOTION": 15.28010204, "ECCENTRICITY": 0.0005635, "INCLINATION": 97.2877, "RA_OF_ASC_NODE": 34.0785, "ARG_OF_PERICENTER": 88.0213, "MEAN_ANOMALY": 272.1672, "EPHEMERIS_TYPE": 0, "CLASSIFICATION_TYPE": "U", "NORAD_CAT_ID": 57399, "ELEMENT_SET_NO": 999, "REV_AT_EPOCH": 13276, "BSTAR": 0.00037512, "MEAN_MOTION_DOT": 0.00010186, "MEAN_MOTION_DDOT": 0}, "tle": {"line1": "1 57399U 23101A   25344.17232623  .00010186  00000+0  37512-3 0  9990", "line2": "2 57399  97.2877  34.0785 0005635  88.0213 272.1672 15.28010204132762"}}, "geometry": {"type": "Point", "coordinates": [172.88335594225998, -79.0683594906886]}}, {"type": "Feature", "properties": {"norad_id": 57400, "name": "TIANMU-1 08", "group": "weather", "lat": 80.34626496062322, "lon": -14.602996497024323, "alt_km": 469.24903276544956, "timestamp": "2025-12-10T11:33:53.034499+00:00", "meta": {"OBJECT_NAME": "TIANMU-1 08", "OBJECT_ID": "2023-101B", "EPOCH": "2025-12-10T04:54:48.754080", "MEAN_MOTION": 15.27995343, "ECCENTRICITY": 0.0007555, "INCLINATION": 97.2865, "RA_OF_ASC_NODE": 33.9086, "ARG_OF_PERICENTER": 90.8088, "MEAN_ANOMALY": 269.4018, "EPHEMERIS_TYPE": 0, "CLASSIFICATION_TYPE": "U", "NORAD_CAT_ID": 57400, "ELEMENT_SET_NO": 999, "REV_AT_EPOCH": 13276, "BSTAR": 0.00036731, "MEAN_MOTION_DOT": 9.971e-05, "MEAN_MOTION_DDOT": 0}, "tle": {"line1": "1 57400U 23101B   25344.20473095  .00009971  00000+0  36731-3 0  9999", "line2": "2 57400  97.2865  33.9086 0007555  90.8088 269.4018 15.27995343132766"}}, "geometry": {"type": "Point", "coordinates": [-14.602996497024323, 80.34626496062322]}}]}